381P/LINEAR-Spacewatch,e,28.3735,173.7691,173.3258,7.140130,0.0516589,0.68157315,73.7172,08/24.0/2023,2000,g 17.5,2.0
# From MPEC 2022-Y15
382P/Larson,e,8.3540,173.1707,163.7545,6.052642,0.0661891,0.27862651,41.0162,08/24.0/2023,2000,g  8.0,4.0
# From MPEC 2022-OB6
383P/Christensen,e,12.3272,207.8165,133.7943,3.547411,0.1475152,0.59915091,206.1411,08/24.0/2023,2000,g 18.0,4.0
# From MPEC 2022-OB6
384P/Kowalski,e,7.2832,354.2137,37.6723,2.899276,0.1996502,0.61629454,281.7126,08/24.0/2023,2000,g 19.5,4.0
# From MPEC 2021-F20
385P/Hill,e,16.8287,357.0543,44.3761,4.288519,0.1109796,0.40216328,159.5622,08/24.0/2023,2000,g 13.0,4.0
# From MPEC 2021-L04
386P/PANSTARRS,e,15.2348,134.9262,353.0884,4.051657,0.1208523,0.41665394,132.9187,08/24.0/2023,2000,g 14.5,4.0
# From MPEC 2021-J28
387P/Boattini,e,8.9363,259.2304,162.8249,4.796928,0.0938122,0.73697510,135.7046,08/24.0/2023,2000,g 15.0,4.0
# From MPEC 2021-S45
388P/Gibbs,e,23.8912,37.0500,42.2891,5.240695,0.0821525,0.61900137,122.5060,08/24.0/2023,2000,g 13.0,4.0
# From MPEC 2022-OB6
389P/Siding Spring,e,160.0873,218.8859,249.4014,5.633670,0.0737084,0.70466357,98.2530,08/24.0/2023,2000,g 16.0,4.0
# From MPEC 2022-OB6
390P/Gibbs,e,18.5503,152.2609,232.4291,5.812305,0.0703366,0.70741206,87.8611,08/24.0/2023,2000,g 12.0,4.0
# From MPEC 2021-F20
391P/Kowalski,e,21.2620,124.7365,187.3364,4.685985,0.0971634,0.11932437,192.5358,08/24.0/2023,2000,g  8.0,4.0
# From MPEC 2021-J28
392P/LINEAR,e,4.9316,24.8829,71.8621,6.140314,0.0647766,0.68345990,80.2946,08/24.0/2023,2000,g 14.5,4.0
# From MPEC 2021-BE3
393P/Spacewatch-Hill,e,16.7877,36.3897,329.0103,4.794604,0.0938804,0.12032048,130.7512,08/24.0/2023,2000,g 11.0,4.0
# From MPEC 2020-KB7
394P/PANSTARRS,e,8.5298,98.1267,54.4220,4.329496,0.1094077,0.36750852,149.1970,08/24.0/2023,2000,g 16.0,2.4
# From MPEC 2023-Q33
395P/Catalina-NEAT,e,3.4954,221.2578,96.1523,6.999192,0.0532270,0.41206708,30.3938,08/24.0/2023,2000,g 10.0,4.0
# From MPEC 2020-KB7
396P/,e,5.4378,136.6401,8.3530,6.803114,0.0555447,0.41599655,80.9609,08/24.0/2023,2000,g 12.0,4.0
# From MPEC 2022-OB6
397P/Lemmon,e,10.9283,8.1956,14.5557,3.830562,0.1314651,0.40524018,152.4919,08/24.0/2023,2000,g 12.0,4.0
# From MPEC 2021-L04
398P/Boattini,e,11.0192,127.4267,320.2145,3.126123,0.1783179,0.58331401,172.9393,08/24.0/2023,2000,g 15.5,4.0
# From MPEC 2022-M88
399P/PANSTARRS,e,13.3224,207.1309,214.3657,3.792457,0.1334514,0.44739537,109.8337,08/24.0/2023,2000,g 14.0,4.0
# From MPEC 2022-ED3
400P/PANSTARRS,e,10.9293,176.3887,238.8459,3.561745,0.1466256,0.40968233,135.5380,08/24.0/2023,2000,g 15.5,2.8
# From MPEC 2022-K19
401P/McNaught,e,12.8024,359.8896,309.4398,5.777697,0.0709695,0.57916895,96.2890,08/24.0/2023,2000,g 12.5,4.0
# From MPEC 2023-M14
402P/LINEAR,e,30.8385,123.0844,326.7909,7.029026,0.0528885,0.43970902,32.6320,08/24.0/2023,2000,g 11.2,4.0
# From MPEC 2021-J28
403P/Catalina,e,12.3196,163.8020,277.6494,5.429225,0.0779107,0.50412427,83.4531,08/24.0/2023,2000,g 12.0,4.0
# From MPEC 2023-J29
404P/Bressi,e,9.7882,260.0480,169.3172,4.740031,0.0955064,0.12814242,353.1441,08/24.0/2023,2000,g 10.0,4.0
# From MPEC 2021-F20
406P/Gibbs,e,1.2125,11.5021,352.4384,3.577565,0.1456541,0.54185285,156.1438,08/24.0/2023,2000,g 17.0,4.0
# From MPEC 2022-YN2
407P/PANSTARRS-Fuls,e,4.8745,80.2941,93.5687,3.481013,0.1517559,0.37821657,198.1625,08/24.0/2023,2000,g 14.0,4.0
# From MPEC 2023-J29
408P/Novichonok-Gerke,e,19.3569,189.4410,226.5178,4.742257,0.0954391,0.26872340,30.7907,08/24.0/2023,2000,g 11.0,4.0
# From MPEC 2022-ED3
409P/LONEOS-Hill,e,17.1256,143.6576,15.0751,6.036089,0.0664616,0.70966958,62.3431,08/24.0/2023,2000,g 14.0,4.0
# From MPEC 2022-M21
410P/NEAT-LINEAR,e,9.3909,139.9664,313.1271,6.644226,0.0575490,0.51140522,45.5274,08/24.0/2023,2000,g 12.5,4.0
# From MPEC 2021-J28
411P/Christensen,e,12.3860,77.6520,46.5750,5.811863,0.0703446,0.58108157,66.2331,08/24.0/2023,2000,g 13.5,4.0
# From MPEC 2021-F20
412P/WISE,e,8.9310,0.8458,155.9220,3.110395,0.1796722,0.47893735,178.3251,08/24.0/2023,2000,g 17.0,4.0
# From MPEC 2022-OB6
413P/Larson,e,15.9936,38.9372,186.6749,3.725489,0.1370658,0.42171539,104.8043,08/24.0/2023,2000,g 14.0,4.0
# From MPEC 2021-BE3
414P/STEREO,e,23.4020,257.8088,210.6887,2.793177,0.2111331,0.81191315,198.5971,08/24.0/2023,2000,g 19.0,4.0
# From MPEC 2022-J42
415P/Tenagra,e,31.7928,160.2821,345.9446,4.111074,0.1182418,0.19481137,108.9510,08/24.0/2023,2000,g 12.0,4.0
# From MPEC 2021-L04
416P/Scotti,e,3.3613,355.7892,134.4052,4.008852,0.1227931,0.45462001,112.9208,08/24.0/2023,2000,g 15.5,4.0
# From MPEC 2021-W31
417P/NEOWISE,e,8.1735,109.8740,130.2986,3.330286,0.1621742,0.56173384,137.9426,08/24.0/2023,2000,g 16.5,4.0
# From MPEC 2022-TA0
418P/LINEAR,e,5.7852,277.3764,307.6358,5.095682,0.0856842,0.66425194,57.8944,08/24.0/2023,2000,g 13.0,4.0
# From MPEC 2022-ST7
419P/PANSTARRS,e,2.8028,40.3929,187.7446,3.524087,0.1489821,0.27706027,99.0780,08/24.0/2023,2000,g 12.5,4.0
# From MPEC 2022-OB6
420P/Hill,e,14.4899,173.8879,156.7099,5.520084,0.0759951,0.49602734,34.9614,08/24.0/2023,2000,g 11.5,4.0
# From MPEC 2021-W31
421P/McNaught,e,10.0761,55.3337,259.8923,5.076506,0.0861701,0.67500763,81.0494,08/24.0/2023,2000,g 14.0,4.0
# From MPEC 2022-X67
422P/Christensen,e,39.5854,36.0284,304.9178,6.291181,0.0624606,0.50690907,36.7565,08/24.0/2023,2000,g 11.0,4.0
# From MPEC 2023-FK0
423P/Lemmon,e,8.3464,33.2950,80.3755,6.172799,0.0642659,0.12202688,45.2076,08/24.0/2023,2000,g  8.0,4.0
# From MPEC 2022-CN4
424P/LaSagra,e,8.6850,51.1603,312.5538,4.417899,0.1061403,0.69118346,70.1986,08/24.0/2023,2000,g 17.0,4.0
# From MPEC 2023-BF4
425P/Kowalski,e,16.4211,210.0732,200.8512,6.341549,0.0617179,0.54400087,43.3345,08/24.0/2023,2000,g 12.0,4.0
# From MPEC 2022-P82
426P/PANSTARRS,e,17.7664,280.4349,118.7814,3.190588,0.1729410,0.16194487,356.6715,08/24.0/2023,2000,g 13.5,4.0
# From MPEC 2023-J29
428P/Gibbs,e,8.5093,299.3379,36.8826,3.486316,0.1514098,0.51907471,125.8972,08/24.0/2023,2000,g 15.0,4.0
# From MPEC 2022-H04
429P/LINEAR-Hill,e,7.5190,322.0685,75.6095,3.553347,0.1471457,0.49142149,88.0986,08/24.0/2023,2000,g 15.5,4.0
# From MPEC 2022-L66
430P/Scotti,e,4.4753,54.6741,94.4380,3.104853,0.1801534,0.49961986,113.4703,08/24.0/2023,2000,g 16.5,4.0
# From MPEC 2023-D72
431P/Scotti,e,22.3928,202.8418,199.9247,3.474740,0.1521670,0.47780677,84.6802,08/24.0/2023,2000,g 14.0,4.0
# From MPEC 2021-U31
432P/PANSTARRS,e,10.0683,239.1349,105.3002,3.036137,0.1863039,0.24164984,134.8286,08/24.0/2023,2000,g 17.0,4.0
# From MPEC 2022-OB6
434P/Tenagra,e,6.3368,288.9542,128.2091,4.131888,0.1173495,0.27473189,78.2104,08/24.0/2023,2000,g 13.0,4.0
# From MPEC 2021-W31
435P/PANSTARRS,e,18.8771,98.5445,244.2247,3.019582,0.1878382,0.31834652,142.3054,08/24.0/2023,2000,g 17.0,4.0
# From MPEC 2022-X67
436P/Garradd,e,20.2043,87.1795,282.6618,5.932869,0.0682036,0.66977217,42.5232,08/24.0/2023,2000,g 14.5,4.0
# From MPEC 2023-B57
437P/Lemmon-PANSTARRS,e,3.6888,245.8530,206.8052,4.563117,0.1011141,0.25479498,37.4228,08/24.0/2023,2000,g 13.0,4.0
# From MPEC 2021-W47
438P/Christensen,e,8.2824,260.1297,59.0322,3.849552,0.1304935,0.41501884,161.3172,08/24.0/2023,2000,g 14.5,4.0
# From MPEC 2022-C56
439P/LINEAR,e,7.1148,56.3995,342.0821,3.489998,0.1511703,0.46961503,110.0044,08/24.0/2023,2000,g 13.5,4.0
# From MPEC 2022-WQ9
440P/Kobayashi,e,12.3395,328.8642,183.2912,8.578247,0.0392289,0.76042267,20.0891,08/24.0/2023,2000,g 15.5,4.0
# From MPEC 2022-X67
441P/PANSTARRS,e,2.5744,143.6114,178.8329,4.134207,0.1172508,0.19526354,272.4066,08/24.0/2023,2000,g 13.5,4.0
# From MPEC 2023-J29
442P/McNaught,e,6.0586,32.0130,310.8208,4.969899,0.0889575,0.53306434,32.9416,08/24.0/2023,2000,g 13.5,4.0
# From MPEC 2023-Q33
443P/PANSTARRS-Christensen,e,19.8882,108.9431,145.1168,4.126319,0.1175872,0.28354610,37.3748,08/24.0/2023,2000,g 13.5,4.0
# From MPEC 2022-YN2
444P/WISE-PANSTARRS,e,22.1401,89.2765,171.1149,3.433433,0.1549213,0.57064833,63.4257,08/24.0/2023,2000,g 17.0,4.0
# From MPEC 2022-YB4
445P/Lemmon-PANSTARRS,e,1.0885,126.5916,213.5069,4.055590,0.1206766,0.41416757,44.8640,08/24.0/2023,2000,g 15.0,4.0
# From MPEC 2022-WQ9
446P/McNaught,e,16.6138,336.3890,344.6986,4.568056,0.1009501,0.64691264,45.5784,08/24.0/2023,2000,g 16.5,4.0
# From MPEC 2022-YB4
447P/Sheppard-Tholen,e,7.4357,302.6498,97.7262,5.636565,0.0736516,0.17904796,27.2300,08/24.0/2023,2000,g 12.0,4.0
# From MPEC 2023-A50
448P/PANSTARRS,e,12.1515,161.7539,218.7288,3.634223,0.1422613,0.41880177,50.0010,08/24.0/2023,2000,g 16.0,4.0
# From MPEC 2022-UE6
449P/Leonard,e,15.4687,242.5262,176.7038,3.600125,0.1442872,0.47975804,144.6945,08/24.0/2023,2000,g 16.0,4.0
# From MPEC 2023-Q33
450P/LONEOS,e,10.5531,124.8347,21.1780,7.973724,0.0437736,0.31119608,305.6362,08/24.0/2023,2000,g  6.5,4.0
# From MPEC 2023-HD1
451P/Christensen,e,26.4802,300.9063,186.7040,6.341120,0.0617241,0.55867679,16.6313,08/24.0/2023,2000,g 15.5,4.0
# From MPEC 2023-J29
452P/Sheppard-Jewitt,e,6.4219,123.6944,37.0415,7.298093,0.0499908,0.42750234,6.0206,08/24.0/2023,2000,g  9.0,4.0
# From MPEC 2023-Q33
453P/WISE-Lemmon,e,27.0680,42.8960,70.8349,5.459306,0.0772677,0.58264085,13.4410,08/24.0/2023,2000,g 14.0,4.0
# From MPEC 2023-CD7
454P/PANSTARRS,e,19.8125,54.5841,20.0341,4.206689,0.1142335,0.36147965,44.9917,08/24.0/2023,2000,g 14.0,4.0
# From MPEC 2022-Y14
455P/PANSTARRS,e,14.1372,146.1869,237.5218,3.153418,0.1760077,0.30503785,31.6314,08/24.0/2023,2000,g 17.0,4.0
# From MPEC 2023-N01
456P/PANSTARRS,e,16.9608,243.1847,234.1608,3.168233,0.1747746,0.11793039,254.3060,08/24.0/2023,2000,g 13.5,4.0
# From MPEC 2023-F99
457P/Lemmon-PANSTARRS,e,5.2255,175.9750,104.4526,2.645912,0.2290029,0.11878538,276.9768,08/24.0/2023,2000,g 15.5,4.0
# From MPEC 2023-HD1
458P/Jahn,e,13.6284,1.5877,104.8011,3.856450,0.1301435,0.31693737,38.7604,08/24.0/2023,2000,g 17.3,4.0
# From MPEC 2023-Q33
459P/Catalina,e,7.1721,256.9951,205.1874,3.239019,0.1690768,0.57760031,31.0442,08/24.0/2023,2000,g 15.5,4.0
# From MPEC 2023-G14
